[{"OBJECT_NAME":"LYNK TOWER 5","OBJECT_ID":"2024-043Z","EPOCH":"2026-03-09T22:11:51.175104","MEAN_MOTION":15.29454506,"ECCENTRICITY":0.00104056,"INCLINATION":97.5458,"RA_OF_ASC_NODE":204.7305,"ARG_OF_PERICENTER":234.6422,"MEAN_ANOMALY":125.3846,"EPHEMERIS_TYPE":0,"CLASSIFICATION_TYPE":"U","NORAD_CAT_ID":59121,"ELEMENT_SET_NO":999,"REV_AT_EPOCH":11186,"BSTAR":0.00031901545,"MEAN_MOTION_DOT":9.048e-5,"MEAN_MOTION_DDOT":0},{"OBJECT_NAME":"STARLINK-35420","OBJECT_ID":"2025-245AC","EPOCH":"2026-03-09T20:45:08.121312","MEAN_MOTION":15.3020528,"ECCENTRICITY":6.901e-5,"INCLINATION":53.158,"RA_OF_ASC_NODE":283.0536,"ARG_OF_PERICENTER":117.201,"MEAN_ANOMALY":242.9061,"EPHEMERIS_TYPE":0,"CLASSIFICATION_TYPE":"U","NORAD_CAT_ID":66260,"ELEMENT_SET_NO":999,"REV_AT_EPOCH":2128,"BSTAR":0.00081961264,"MEAN_MOTION_DOT":0.00023998,"MEAN_MOTION_DDOT":0}]
